start=new Date('2022-12-17T00:00:00.000Z').valueOf();
sats=[{"SEMIMAJOR_AXIS":"6925.361","OBJECT_TYPE":"PAYLOAD","MEAN_MOTION_DOT":"0.00000227","EPHEMERIS_TYPE":"0","PERIAPSIS":"546.116","REF_FRAME":"TEME","FILE":"3705029","GP_ID":"220661762","OBJECT_ID":"2021-017BD","TLE_LINE2":"2 47773  53.0552 113.7179 0001603  55.6015 304.5126 15.06395868 99900","REV_AT_EPOCH":"9990","CENTER_NAME":"EARTH","OBJECT_NAME":"STARLINK-2196","ARG_OF_PERICENTER":"55.6015","RA_OF_ASC_NODE":"113.7179","CLASSIFICATION_TYPE":"U","MEAN_MOTION_DDOT":"0.0000000000000","ELEMENT_SET_NO":"999","INCLINATION":"53.0552","APOAPSIS":"548.336","LAUNCH_DATE":"2021-03-04","MEAN_ELEMENT_THEORY":"SGP4","TLE_LINE1":"1 47773U 21017BD  22350.83328235  .00000227  00000-0  34148-4 0  9990","BSTAR":"0.00003414800000","ECCENTRICITY":"0.00016030","DECAY_DATE":null,"PERIOD":"95.592","SITE":"AFETR","MEAN_ANOMALY":"304.5126","NORAD_CAT_ID":"47773","TIME_SYSTEM":"UTC","RCS_SIZE":"LARGE","EPOCH":"2022-12-16T19:59:55.595040","MEAN_MOTION":"15.06395868","COUNTRY_CODE":"US"},{"EPOCH":"2022-12-16T19:54:37.335456","RCS_SIZE":"LARGE","MEAN_ANOMALY":"305.8393","SITE":"AFETR","NORAD_CAT_ID":"47774","TIME_SYSTEM":"UTC","COUNTRY_CODE":"US","MEAN_MOTION":"15.06398160","LAUNCH_DATE":"2021-03-04","MEAN_ELEMENT_THEORY":"SGP4","APOAPSIS":"548.406","INCLINATION":"53.0535","PERIOD":"95.592","DECAY_DATE":null,"ECCENTRICITY":"0.00017130","BSTAR":"0.00022598000000","TLE_LINE1":"1 47774U 21017BE  22350.82959879  .00003086  00000-0  22598-3 0  9995","OBJECT_NAME":"STARLINK-2197","ARG_OF_PERICENTER":"54.2755","CENTER_NAME":"EARTH","REV_AT_EPOCH":"9991","TLE_LINE2":"2 47774  53.0535 113.7326 0001713  54.2755 305.8393 15.06398160 99913","OBJECT_ID":"2021-017BE","GP_ID":"220662015","ELEMENT_SET_NO":"999","MEAN_MOTION_DDOT":"0.0000000000000","CLASSIFICATION_TYPE":"U","RA_OF_ASC_NODE":"113.7326","EPHEMERIS_TYPE":"0","OBJECT_TYPE":"PAYLOAD","MEAN_MOTION_DOT":"0.00003086","SEMIMAJOR_AXIS":"6925.354","FILE":"3705029","REF_FRAME":"TEME","PERIAPSIS":"546.033"},{"REF_FRAME":"TEME","FILE":"3705029","PERIAPSIS":"546.012","EPHEMERIS_TYPE":"0","SEMIMAJOR_AXIS":"6925.385","MEAN_MOTION_DOT":"-0.00000205","OBJECT_TYPE":"PAYLOAD","CLASSIFICATION_TYPE":"U","ELEMENT_SET_NO":"999","MEAN_MOTION_DDOT":"0.0000000000000","RA_OF_ASC_NODE":"114.5735","ARG_OF_PERICENTER":"57.2979","OBJECT_NAME":"STARLINK-2198","OBJECT_ID":"2021-017BF","GP_ID":"220662751","TLE_LINE2":"2 47775  53.0554 114.5735 0001788  57.2979 302.8182 15.06388146 99939","REV_AT_EPOCH":"9993","CENTER_NAME":"EARTH","DECAY_DATE":null,"PERIOD":"95.593","TLE_LINE1":"1 47775U 21017BF  22350.64162090 -.00000205  00000-0  51677-5 0  9990","BSTAR":"0.00000516770000","ECCENTRICITY":"0.00017880","APOAPSIS":"548.488","MEAN_ELEMENT_THEORY":"SGP4","LAUNCH_DATE":"2021-03-04","INCLINATION":"53.0554","COUNTRY_CODE":"US","MEAN_MOTION":"15.06388146","SITE":"AFETR","NORAD_CAT_ID":"47775","MEAN_ANOMALY":"302.8182","TIME_SYSTEM":"UTC","RCS_SIZE":"LARGE","EPOCH":"2022-12-16T15:23:56.045760"},{"DECAY_DATE":null,"PERIOD":"95.593","TLE_LINE1":"1 47776U 21017BG  22350.80102756  .00000347  00000-0  42212-4 0  9992","ECCENTRICITY":"0.00016720","BSTAR":"0.00004221200000","APOAPSIS":"548.391","MEAN_ELEMENT_THEORY":"SGP4","LAUNCH_DATE":"2021-03-04","INCLINATION":"53.0539","COUNTRY_CODE":"US","MEAN_MOTION":"15.06393633","RCS_SIZE":"LARGE","SITE":"AFETR","NORAD_CAT_ID":"47776","MEAN_ANOMALY":"298.1323","TIME_SYSTEM":"UTC","EPOCH":"2022-12-16T19:13:28.781184","REF_FRAME":"TEME","FILE":"3705029","PERIAPSIS":"546.075","EPHEMERIS_TYPE":"0","MEAN_MOTION_DOT":"0.00000347","OBJECT_TYPE":"PAYLOAD","SEMIMAJOR_AXIS":"6925.368","ELEMENT_SET_NO":"999","MEAN_MOTION_DDOT":"0.0000000000000","CLASSIFICATION_TYPE":"U","RA_OF_ASC_NODE":"103.8606","ARG_OF_PERICENTER":"61.9835","OBJECT_NAME":"STARLINK-2209","TLE_LINE2":"2 47776  53.0539 103.8606 0001672  61.9835 298.1323 15.06393633100064","GP_ID":"220661517","OBJECT_ID":"2021-017BG","CENTER_NAME":"EARTH","REV_AT_EPOCH":"10006"},{"MEAN_MOTION":"15.06389514","COUNTRY_CODE":"US","EPOCH":"2022-12-16T19:18:47.553984","SITE":"AFETR","NORAD_CAT_ID":"47777","MEAN_ANOMALY":"320.3023","TIME_SYSTEM":"UTC","RCS_SIZE":"LARGE","BSTAR":"-0.00002352300000","ECCENTRICITY":"0.00019230","TLE_LINE1":"1 47777U 21017BH  22350.80471706 -.00000632  00000-0 -23523-4 0  9990","PERIOD":"95.593","DECAY_DATE":null,"INCLINATION":"53.0533","LAUNCH_DATE":"2021-03-04","MEAN_ELEMENT_THEORY":"SGP4","APOAPSIS":"548.577","RA_OF_ASC_NODE":"103.8445","CLASSIFICATION_TYPE":"U","ELEMENT_SET_NO":"999","MEAN_MOTION_DDOT":"0.0000000000000","REV_AT_EPOCH":"10006","CENTER_NAME":"EARTH","GP_ID":"220661262","OBJECT_ID":"2021-017BH","TLE_LINE2":"2 47777  53.0533 103.8445 0001923  39.8107 320.3023 15.06389514100063","ARG_OF_PERICENTER":"39.8107","OBJECT_NAME":"STARLINK-2210","PERIAPSIS":"545.914","FILE":"3705029","REF_FRAME":"TEME","SEMIMAJOR_AXIS":"6925.381","MEAN_MOTION_DOT":"-0.00000632","OBJECT_TYPE":"PAYLOAD","EPHEMERIS_TYPE":"0"},{"MEAN_MOTION_DOT":"0.00002066","OBJECT_TYPE":"PAYLOAD","SEMIMAJOR_AXIS":"6925.384","EPHEMERIS_TYPE":"0","PERIAPSIS":"546.150","FILE":"3705029","REF_FRAME":"TEME","CENTER_NAME":"EARTH","REV_AT_EPOCH":"10004","TLE_LINE2":"2 47778  53.0558 104.2899 0001587  61.8067 298.3082 15.06388275100045","OBJECT_ID":"2021-017BJ","GP_ID":"220662516","OBJECT_NAME":"STARLINK-2211","ARG_OF_PERICENTER":"61.8067","RA_OF_ASC_NODE":"104.2899","ELEMENT_SET_NO":"999","MEAN_MOTION_DDOT":"0.0000000000000","CLASSIFICATION_TYPE":"U","INCLINATION":"53.0558","MEAN_ELEMENT_THEORY":"SGP4","LAUNCH_DATE":"2021-03-04","APOAPSIS":"548.349","ECCENTRICITY":"0.00015870","BSTAR":"0.00015762000000","TLE_LINE1":"1 47778U 21017BJ  22350.70519990  .00002066  00000-0  15762-3 0  9994","PERIOD":"95.593","DECAY_DATE":null,"EPOCH":"2022-12-16T16:55:29.271360","RCS_SIZE":"LARGE","SITE":"AFETR","MEAN_ANOMALY":"298.3082","NORAD_CAT_ID":"47778","TIME_SYSTEM":"UTC","MEAN_MOTION":"15.06388275","COUNTRY_CODE":"US"},{"BSTAR":"0.00207610000000","ECCENTRICITY":"0.00010350","TLE_LINE1":"1 47779U 21017BK  22350.74382683  .00039175  00000-0  20761-2 0  9991","PERIOD":"95.047","DECAY_DATE":null,"INCLINATION":"53.0531","MEAN_ELEMENT_THEORY":"SGP4","LAUNCH_DATE":"2021-03-04","APOAPSIS":"521.579","MEAN_MOTION":"15.15038223","COUNTRY_CODE":"US","EPOCH":"2022-12-16T17:51:06.638112","NORAD_CAT_ID":"47779","SITE":"AFETR","TIME_SYSTEM":"UTC","MEAN_ANOMALY":"235.0579","RCS_SIZE":"LARGE","PERIAPSIS":"520.150","FILE":"3705029","REF_FRAME":"TEME","SEMIMAJOR_AXIS":"6899.000","OBJECT_TYPE":"PAYLOAD","MEAN_MOTION_DOT":"0.00039175","EPHEMERIS_TYPE":"0","RA_OF_ASC_NODE":"84.8774","CLASSIFICATION_TYPE":"U","ELEMENT_SET_NO":"999","MEAN_MOTION_DDOT":"0.0000000000000","REV_AT_EPOCH":"10033","CENTER_NAME":"EARTH","GP_ID":"220662251","OBJECT_ID":"2021-017BK","TLE_LINE2":"2 47779  53.0531  84.8774 0001035 125.0511 235.0579 15.15038223100333","ARG_OF_PERICENTER":"125.0511","OBJECT_NAME":"STARLINK-2212"},{"MEAN_MOTION_DOT":"0.00000556","OBJECT_TYPE":"PAYLOAD","SEMIMAJOR_AXIS":"6925.346","EPHEMERIS_TYPE":"0","PERIAPSIS":"545.834","FILE":"3705029","REF_FRAME":"TEME","CENTER_NAME":"EARTH","REV_AT_EPOCH":"10009","TLE_LINE2":"2 47780  53.0552 103.8739 0001988  52.4872 307.6297 15.06400957100094","GP_ID":"220661017","OBJECT_ID":"2021-017BL","OBJECT_NAME":"STARLINK-2213","ARG_OF_PERICENTER":"52.4872","RA_OF_ASC_NODE":"103.8739","ELEMENT_SET_NO":"999","MEAN_MOTION_DDOT":"0.0000000000000","CLASSIFICATION_TYPE":"U","INCLINATION":"53.0552","LAUNCH_DATE":"2021-03-04","MEAN_ELEMENT_THEORY":"SGP4","APOAPSIS":"548.587","ECCENTRICITY":"0.00019880","BSTAR":"0.00005621800000","TLE_LINE1":"1 47780U 21017BL  22350.79734155  .00000556  00000-0  56218-4 0  9992","PERIOD":"95.592","DECAY_DATE":null,"EPOCH":"2022-12-16T19:08:10.309920","RCS_SIZE":"LARGE","NORAD_CAT_ID":"47780","SITE":"AFETR","MEAN_ANOMALY":"307.6297","TIME_SYSTEM":"UTC","MEAN_MOTION":"15.06400957","COUNTRY_CODE":"US"},{"APOAPSIS":"548.407","LAUNCH_DATE":"2021-03-04","MEAN_ELEMENT_THEORY":"SGP4","INCLINATION":"53.0562","DECAY_DATE":null,"PERIOD":"95.593","TLE_LINE1":"1 47781U 21017BM  22350.76417106 -.00000057  00000-0  15057-4 0  9997","BSTAR":"0.00001505700000","ECCENTRICITY":"0.00016860","SITE":"AFETR","NORAD_CAT_ID":"47781","MEAN_ANOMALY":"301.1353","TIME_SYSTEM":"UTC","RCS_SIZE":"LARGE","EPOCH":"2022-12-16T18:20:24.379584","COUNTRY_CODE":"US","MEAN_MOTION":"15.06391657","EPHEMERIS_TYPE":"0","SEMIMAJOR_AXIS":"6925.374","OBJECT_TYPE":"PAYLOAD","MEAN_MOTION_DOT":"-0.00000057","REF_FRAME":"TEME","FILE":"3705029","PERIAPSIS":"546.072","OBJECT_NAME":"STARLINK-2223","ARG_OF_PERICENTER":"58.9801","OBJECT_ID":"2021-017BM","GP_ID":"220661763","TLE_LINE2":"2 47781  53.0562 104.0212 0001686  58.9801 301.1353 15.06391657100046","REV_AT_EPOCH":"10004","CENTER_NAME":"EARTH","CLASSIFICATION_TYPE":"U","ELEMENT_SET_NO":"999","MEAN_MOTION_DDOT":"0.0000000000000","RA_OF_ASC_NODE":"104.0212"},{"EPHEMERIS_TYPE":"0","SEMIMAJOR_AXIS":"6925.357","MEAN_MOTION_DOT":"0.00000181","OBJECT_TYPE":"PAYLOAD","REF_FRAME":"TEME","FILE":"3705029","PERIAPSIS":"546.203","OBJECT_NAME":"STARLINK-2257","ARG_OF_PERICENTER":"75.2123","OBJECT_ID":"2021-018A","GP_ID":"220662016","TLE_LINE2":"2 47787  53.0559 143.6429 0001472  75.2123 284.9029 15.06397265 98910","REV_AT_EPOCH":"9891","CENTER_NAME":"EARTH","CLASSIFICATION_TYPE":"U","MEAN_MOTION_DDOT":"0.0000000000000","ELEMENT_SET_NO":"999","RA_OF_ASC_NODE":"143.6429","APOAPSIS":"548.241","LAUNCH_DATE":"2021-03-11","MEAN_ELEMENT_THEORY":"SGP4","INCLINATION":"53.0559","DECAY_DATE":null,"PERIOD":"95.592","TLE_LINE1":"1 47787U 21018A   22350.84894746  .00000181  00000-0  31038-4 0  9996","BSTAR":"0.00003103800000","ECCENTRICITY":"0.00014720","SITE":"AFETR","NORAD_CAT_ID":"47787","MEAN_ANOMALY":"284.9029","TIME_SYSTEM":"UTC","RCS_SIZE":"LARGE","EPOCH":"2022-12-16T20:22:29.060544","COUNTRY_CODE":"US","MEAN_MOTION":"15.06397265"}];
